ATLAS 5 CENTAUR DEB     
1 45471U 18079BT  26061.86081721 -.00000154  00000+0  00000+0 0  9993
2 45471  13.2673  53.3437 4668657 275.5340  34.8501  1.77790408 40826
ATLAS 5 CENTAUR DEB     
1 45473U 18079BV  26055.14069281 -.00000119  00000+0  00000+0 0  9997
2 45473  12.7956  76.6693 4594200 226.1930  85.2779  1.70631288 39780
ATLAS 5 CENTAUR DEB     
1 45474U 18079BW  26061.04051811 -.00000122  00000+0  00000+0 0  9998
2 45474  12.9339  70.5487 4489358 238.8647  69.5403  1.74192991 41121
COSMOS 2546             
1 45608U 20031A   26061.85008943 -.00000170  00000+0  00000+0 0  9998
2 45608  63.1496  80.1102 7032637 265.8026  18.2968  2.00633088 42339
FREGAT R/B              
1 45609U 20031B   26059.80030294  .00000770  00000+0  00000+0 0  9990
2 45609  63.5211  77.5908 7129933 258.2144  20.7007  2.01377464 42477
BEIDOU-3 G3             
1 45807U 20040A   26061.97402785 -.00000369  00000+0  00000+0 0  9994
2 45807   2.1864  67.1119 0004228 315.1868 239.5484  1.00276035 21002
APSTAR-6D               
1 45863U 20045A   26061.89993141 -.00000334  00000+0  00000+0 0  9995
2 45863   0.0416 104.1810 0002453 341.7817 172.6983  1.00269590 20795
KOREASAT 116            
1 45920U 20048A   26061.96774322  .00000000  00000+0  00000+0 0  9997
2 45920   0.0204 155.5175 0001105 185.6351 284.1969  1.00270318 20578
EXPRESS 103             
1 45985U 20053A   26062.03508354 -.00000297  00000+0  00000+0 0  9992
2 45985   0.0351 290.3437 0000904 355.5788 343.9949  1.00273535 20586
EXPRESS 80              
1 45986U 20053B   26061.33292921 -.00000154  00000+0  00000+0 0  9997
2 45986   0.0383 266.3297 0002221  21.0430  72.5659  1.00278276 20571
BREEZE-M R/B            
1 45987U 20053C   26062.04912068 -.00000247  00000+0  00000+0 0  9991
2 45987   7.2474  80.1405 4350453  74.0640 329.0339  1.03580823 21149
BSAT-4B                 
1 46112U 20056A   26061.99034564 -.00000366  00000+0  00000+0 0  9996
2 46112   0.0375 203.5979 0001310 239.4094 184.0959  1.00273318 20320
MEV-2                   
1 46113U 20056B   26061.87315514 -.00000028  00000+0  00000+0 0  9996
2 46113   0.0151 123.0430 0001042 253.4183  97.4995  1.00270496 79491
GALAXY 30 (G-30)        
1 46114U 20056C   26062.15947694  .00000021  00000+0  00000+0 0  9991
2 46114   0.0168 121.9575 0002205 218.1627 113.1970  1.00272235 20229
ATLAS 5 CENTAUR DEB     
1 46602U 18079CA  26061.07349990 -.00000164  00000+0  00000+0 0  9999
2 46602  13.3918  47.9997 4683641 284.8624  29.1851  1.79057448 38064
GAOFEN-13 01            
1 46610U 20071A   26061.96817655 -.00000379  00000+0  00000+0 0  9997
2 46610   0.2466  85.7710 0043121 120.1114  61.6085  1.00275611 19858
ATLAS 5 CENTAUR DEB     
1 46657U 18079CK  26060.34501056 -.00000239  00000+0  00000+0 0  9994
2 46657  11.9572  32.1181 5851000 319.8261   8.9252  1.70504740 33493
ATLAS 5 CENTAUR DEB     
1 46846U 18079DB  26060.84471262 -.00000152  00000+0  00000+0 0  9998
2 46846  12.2983  71.9539 4807847 249.1511  54.1446  1.71840848 33450
ATLAS 5 CENTAUR DEB     
1 46847U 18079DC  26061.37906022 -.00000159  00000+0  00000+0 0  9992
2 46847  13.4570  50.4685 4710830 278.4587  32.6487  1.77284923 34542
ATLAS 5 CENTAUR DEB     
1 46857U 18079DN  26061.10359224 -.00000112  00000+0  00000+0 0  9999
2 46857  12.4251  81.9598 4646174 221.0725  92.7030  1.69096112 32919
TIANTONG-1 2            
1 46916U 20082A   26062.04071691 -.00000372  00000+0  00000+0 0  9993
2 46916   0.9531 314.7117 0003509  21.7087 324.0014  1.00274772 19589
ATLAS 5 CENTAUR DEB     
1 47096U 14055DE  26055.57888081 -.00000016  00000+0  00000+0 0  9990
2 47096  19.2659 177.1970 4886288 106.0275 311.3048  1.79155303 35100
LUCAS (JDRS-1)          
1 47202U 20089A   26062.10525334 -.00000251  00000+0  00000+0 0  9990
2 47202   0.0642 275.4120 0002825  61.6771 312.4242  1.00273534 19356
SXM-7                   
1 47240U 20096A   26061.36850308 -.00000223  00000+0  00000+0 0  9998
2 47240   0.0187 122.0310 0004024   7.7857  77.7989  1.00275144  6375
BREEZE-M DEB [TANK]     
1 47243U 20097B   26060.17900884  .00000616  00000+0  69124-3 0  9996
2 47243  58.2648 130.5864 7302458 103.3091 340.4143  2.20431771 41829
CMS-01                  
1 47256U 20099A   26061.65864066 -.00000181  00000+0  00000+0 0  9999
2 47256   0.0149 136.5446 0006539 152.2006 191.7769  1.00272363 19136
TURKSAT 5A              
1 47306U 21001A   26062.09346661  .00000138  00000+0  00000+0 0  9995
2 47306   0.0212 100.7731 0000121 200.8426 283.8022  1.00270586 18904
FALCON 9 R/B            
1 47307U 21001B   26061.38172723  .00000412  00000+0  16505-2 0  9998
2 47307  15.9475 217.3900 7775045 338.0561   1.4060  1.65125005 28395
TIANTONG-1 3            
1 47321U 21003A   26062.14975223 -.00000169  00000+0  00000+0 0  9997
2 47321   1.8545 333.1891 0006437 343.6351 339.5017  1.00270235 18899
TJS-6                   
1 47613U 21010A   26062.19400046  .00000027  00000+0  00000+0 0  9992
2 47613   0.3263  90.8674 0003229 282.5284  35.8827  1.00270201 18744
ARKTIKA-M 1             
1 47719U 21016A   26061.82287547 -.00000108  00000+0  00000+0 0  9994
2 47719  63.2036  72.8571 7242814 269.4536  15.2019  2.00620868 36653
FREGAT R/B              
1 47720U 21016B   26060.90955432 -.00001502  00000+0  00000+0 0  9998
2 47720  63.2285  65.8235 7364666 267.1765  14.9941  1.98956105 36303
SHIYAN-9 (SY-9)         
1 47851U 21019A   26044.36779670 -.00000221  00000+0  00000+0 0  9993
2 47851  16.7978 304.0404 0016854  23.4452  94.4865  1.00262375 22897
SL-6 DEB                
1 48261U 80063E   26058.20421367  .00000159  00000+0  15341-2 0  9994
2 48261  63.9001   0.2858 7122643 284.4845  11.8012  2.11466866 94685
SL-6 DEB                
1 48262U 80063F   26061.42521534 -.00000384  00000+0  41557-2 0  9999
2 48262  63.5913  18.2182 7221352 280.8708 337.5656  2.05119247 91970
COSMOS 1367 DEB         
1 48266U 82045E   26061.95781696 -.00000411  00000+0  11133-1 0  9997
2 48266  64.0917  65.5682 7206394  13.4140 358.4653  2.06311813 45436
ARIANE 3 DEB            
1 48347U 84081G   26060.93401888 -.00000348  00000+0  00000+0 0  9996
2 48347   6.1190  30.5378 7096926 303.6596   7.7829  2.08089543 93411
SBIRS GEO-5 (USA 315)   
1 48618U 21042A   26062.10594669 -.00000283  00000+0  00000+0 0  9994
2 48618   5.2386 328.3295 0001544 356.9012 327.5585  1.00271475 17702
FENGYUN 4B              
1 48808U 21047A   26062.10802670 -.00000344  00000+0  00000+0 0  9992
2 48808   0.1889  76.8981 0008832 296.5824 290.8175  1.00265595 17500
SXM-8                   
1 48838U 21049A   26061.27197234 -.00000223  00000+0  00000+0 0  9993
2 48838   0.0258  60.0583 0004221 343.6903 129.0399  1.00274439 17525
TIANLIAN 1-05           
1 49011U 21063A   26062.16193363  .00000092  00000+0  00000+0 0  9994
2 49011   1.3203  81.5896 0004670 227.1588 287.2217  1.00271110 17014
STAR ONE D2             
1 49055U 21069A   26062.13725227 -.00000281  00000+0  00000+0 0  9996
2 49055   0.0166 133.9087 0000957 195.3894 171.0177  1.00271346 16879
EUTELSAT QUANTUM        
1 49056U 21069B   26062.10530860  .00000110  00000+0  00000+0 0  9991
2 49056   0.0440 304.7611 0002954  31.4902 270.2169  1.00271903 16866
ZHONGXING-2E            
1 49062U 21071A   26061.10837824 -.00000308  00000+0  00000+0 0  9990
2 49062   0.0222 118.0356 0000198 346.5104 192.3630  1.00267704 16967
TJS-7                   
1 49115U 21077A   26062.13888017 -.00000139  00000+0  00000+0 0  9991
2 49115   0.2343  88.4059 0001731 260.2952 122.6523  1.00269774  8494
CHINASAT 9B             
1 49125U 21080A   26062.10742002 -.00000328  00000+0  00000+0 0  9996
2 49125   0.0348 262.5119 0002150  56.1495 342.2949  1.00272250 16584
SHIYAN-10 01 (SY-10 01) 
1 49258U 21087A   26061.72912154  .00000625  00000+0  00000+0 0  9993
2 49258  63.1013 232.4096 6975890 269.9152  17.0936  2.00628783 32397
SHIJIAN-21 (SJ-21)      
1 49330U 21094A   26062.21155155 -.00000361  00000+0  00000+0 0  9995
2 49330   4.8623  61.7759 0048428 171.6029 131.7130  1.00268520  4296
SES-17                  
1 49332U 21095A   26062.13725227 -.00000288  00000+0  00000+0 0  9990
2 49332   0.0247  65.5808 0001037 275.1453 162.4693  1.00269860 16792
SYRACUSE 4A             
1 49333U 21095B   26062.10530860  .00000000  00000+0  00000+0 0  9996
2 49333   0.0269 150.7647 0001477 199.1205 254.4163  1.00269846 16881
QZS-1R (MICHIBIKI-1R)   
1 49336U 21096A   26060.38447264 -.00000259  00000+0  00000+0 0  9990
2 49336  37.2374  81.1754 0747027 269.6443  80.6815  1.00291836 15925
ATLAS 5 CENTAUR DEB     
1 49340U 18079ER  26059.16574046 -.00000176  00000+0  00000+0 0  9993
2 49340  13.6308  46.9678 4775664 283.0464  29.4098  1.76317741 28985
ATLAS 5 CENTAUR DEB     
1 49341U 18079ES  26061.98039049 -.00000142  00000+0  00000+0 0  9999
2 49341  13.5784  55.6366 4653335 263.8108  43.2274  1.75092615 28849
ATLAS 5 CENTAUR DEB     
1 49343U 18079EU  26062.05105334 -.00000133  00000+0  00000+0 0  9991
2 49343  12.8252  68.7642 4586769 247.7772  58.3183  1.74630224 28770
ATLAS 5 CENTAUR DEB     
1 49351U 18079FC  26059.05863822 -.00000140  00000+0  00000+0 0  9997
2 49351  13.1542  67.2893 4682204 243.4035  61.7407  1.72166119 28326
ATLAS 5 CENTAUR DEB     
1 49352U 18079FD  26058.22251037 -.00000114  00000+0  00000+0 0  9996
2 49352  12.2577  86.9529 4610560 212.2311 108.6901  1.68335690 27669
ATLAS 5 CENTAUR DEB     
1 49356U 18079FH  26059.19599471 -.00000167  00000+0  00000+0 0  9992
2 49356  13.1964  53.5304 4650662 276.1169  34.6202  1.78469260 29342
ATLAS 5 CENTAUR DEB     
1 49362U 18079FP  26059.50213149 -.00000179  00000+0  00000+0 0  9992
2 49362  13.4328  48.6531 4854999 283.0287  28.7504  1.75763629 28891
FREGAT R/B              
1 49504U 21113B   26051.17883752  .00001232  00000+0  00000+0 0  9991
2 49504  63.3525 218.1107 6520915 266.9633  22.3194  2.01587391 31204
